NORAD_CAT_ID,TLE_LINE0,TLE_LINE1,TLE_LINE2,CREATION_DATE,OBJECT_NAME,OBJECT_ID,EPOCH,MEAN_MOTION,ECCENTRICITY,INCLINATION,RA_OF_ASC_NODE,ARG_OF_PERICENTER,MEAN_ANOMALY,REV_AT_EPOCH,BSTAR,MEAN_MOTION_DOT,MEAN_MOTION_DDOT,SEMIMAJOR_AXIS,PERIOD,APOAPSIS,PERIAPSIS,OBJECT_TYPE,COUNTRY_CODE,LAUNCH_DATE,SITE,DECAY_DATE,LAUNCH_YEAR,LAUNCH_SEQ,EPOCH_FINAL,ORBIT_CLASS,EVENT,DURATION,RCS_SIZE
387,0 SL-6 DEB,1 00387U 62040  H 62244.82976651  .02839490 +00000-0 +00000-0 0  9997,2 00387 065.3348 026.0987 0096884 053.4098 307.4783 15.99332157001238,15/08/2004 23:35,SL-6 DEB,1962-040H,01/09/1962 19:54,15.99332157,0.0096884,65.3348,26.0987,53.4098,307.4783,123,0.0,0.0283949,0.0,6654.411,90.037,340.747,211.806,DEBRIS,CIS,07/05/1962,PKMTR,05/09/1962,1962,40,02/09/1962 15:49,LEO,1,121,SMALL
388,0 SCOUT X-2M R/B,1 00388U 62039D   99122.81552244  .58892672  38115-5  70077-3 0  9997,2 00388 098.5159 338.2524 0006209 236.0229 124.1405 16.49948579974443,17/08/2004 15:25,SCOUT X-2M R/B,1962-039D,02/05/1999 19:34,16.49948579,0.0006209,98.5159,338.2524,236.0229,124.1405,97444,0.00070077,0.58892672,3.81e-06,6517.612,87.275,143.523,135.43,ROCKET BODY,US,23/08/1962,AFWTR,02/05/1999,1962,39,03/05/1999 15:08,LEO,1,13401,LARGE
390,0 SL-6 R/B,1 00390U 62045  B 62255.46295779  .13415372 +00000-0 +00000-0 0  9994,2 00390 064.8000 039.7728 0000000 072.1451 143.5449 16.45017332000077,15/08/2004 23:35,SL-6 R/B,1962-045B,12/09/1962 11:06,16.45017332,0.0,64.8,39.7728,72.1451,143.5449,7,0.0,0.13415372,0.0,6530.63,87.537,152.495,152.495,ROCKET BODY,CIS,21/05/1962,PKMTR,12/09/1962,1962,45,12/09/1962 22:13,LEO,1,114,LARGE
391,0 SL-6 DEB,1 00391U 62045  C 62259.77804349  .03028892 +00000-0 +00000-0 0  9998,2 00391 064.7491 023.1129 0000000 064.8283 171.8367 16.35938346000770,15/08/2004 23:35,SL-6 DEB,1962-045C,16/09/1962 18:40,16.35938346,0.0,64.7491,23.1129,64.8283,171.8367,77,0.0,0.03028892,0.0,6554.77,88.022,176.635,176.635,DEBRIS,CIS,23/05/1962,PKMTR,17/09/1962,1962,45,17/09/1962 13:20,LEO,1,117,SMALL
392,0 SL-6 DEB,1 00392U 62045  D 62256.01686490  .03133297 +00000-0 +00000-0 0  9994,2 00392 064.8318 037.4129 0030806 023.0918 195.5120 16.33774292000166,15/08/2004 23:35,SL-6 DEB,1962-045D,13/09/1962 00:24,16.33774292,0.0030806,64.8318,37.4129,23.0918,195.512,16,0.0,0.03133297,0.0,6560.557,88.139,202.632,162.212,DEBRIS,CIS,25/05/1962,PKMTR,13/09/1962,1962,45,13/09/1962 00:48,LEO,1,111,SMALL
393,0 SL-6 DEB,1 00393U 62045  E 62256.01610133  .04771094 +00000-0 +00000-0 0  9990,2 00393 064.8318 037.4129 0014590 023.0918 336.9741 16.37762134000165,15/08/2004 23:35,SL-6 DEB,1962-045E,13/09/1962 00:23,16.37762134,0.001459,64.8318,37.4129,23.0918,336.9741,16,0.0,0.04771094,0.0,6549.903,87.924,181.324,162.212,DEBRIS,CIS,27/05/1962,PKMTR,13/09/1962,1962,45,13/09/1962 00:46,LEO,1,109,SMALL
394,0 SL-6 DEB,1 00394U 62045  F 62259.01756150  .02417513 +00000-0 +00000-0 0  9995,2 00394 064.8318 025.9262 0005351 021.7994 211.2918 16.40035647000651,15/08/2004 23:35,SL-6 DEB,1962-045F,16/09/1962 00:25,16.40035647,0.0005351,64.8318,25.9262,21.7994,211.2918,65,0.0,0.02417513,0.0,6543.848,87.802,169.215,162.212,DEBRIS,CIS,29/05/1962,PKMTR,16/09/1962,1962,45,16/09/1962 00:50,LEO,1,110,SMALL
395,0 SL-6 DEB,1 00395U 62045  G 62255.89990949  .01734313 +00000-0 +00000-0 0  9993,2 00395 064.7491 037.8058 0030057 066.3806 151.7134 16.23619427000143,15/08/2004 23:35,SL-6 DEB,1962-045G,12/09/1962 21:35,16.23619427,0.0030057,64.7491,37.8058,66.3806,151.7134,14,0.0,0.01734313,0.0,6587.884,88.69,229.55,189.948,DEBRIS,CIS,31/05/1962,PKMTR,15/09/1962,1962,45,13/09/1962 19:11,LEO,1,107,SMALL
396,0 FTV 1133/ERS 2,1 00396U 62046  A 62321.98636718  .06584292 +99294-1 +00000-0 0  9998,2 00396 081.8254 347.5833 0000000 295.9940 038.4089 16.35229406009604,15/08/2004 23:35,FTV 1133/ERS 2,1962-046A,17/11/1962 23:40,16.35229406,0.0,81.8254,347.5833,295.994,38.4089,960,0.0,0.06584292,0.099294,6556.664,88.061,178.529,178.529,PAYLOAD,US,02/06/1962,AFWTR,19/11/1962,1962,46,18/11/1962 23:20,LEO,1,170,MEDIUM
397,0 TIROS 6,1 00397U 62047A   25193.56341793  .00000861  00000-0  99715-4 0  9996,2 00397  58.3026 134.8969 0014255  72.5074 287.7530 14.94668469361523,12/07/2025 17:51,TIROS 6,1962-047A,12/07/2025 13:31,14.94668469,0.0014255,58.3026,134.8969,72.5074,287.753,36152,9.97e-05,8.61e-06,0.0,6961.539,96.342,593.328,573.48,PAYLOAD,US,18/09/1962,AFETR,,1962,47,13/07/2025 03:02,LEO,0,22944,MEDIUM
398,0 DELTA 1 R/B,1 00398U 62047  B 83010.12636880  .15965597 +53050-4 +24273-2 0  9999,2 00398 058.2421 145.5088 0007825 323.5562 036.5054 16.33506004092667,16/08/2004 23:16,DELTA 1 R/B,1962-047B,10/01/1983 03:01,16.33506004,0.0007825,58.2421,145.5088,323.5562,36.5054,9266,0.0024273,0.15965597,5.31e-05,6561.275,88.153,188.275,178.006,ROCKET BODY,US,18/09/1962,AFETR,10/01/1983,1962,47,10/01/1983 06:03,LEO,1,7419,LARGE
399,0 DELTA 1 DEB (YO),1   399U 62047C   19010.96904726  .05866066  10973-4  70407-3 0  9996,2   399  58.3746 176.1198 0007011 322.3936 178.7278 16.35768467 45086,11/01/2019 22:28,DELTA 1 DEB (YO),1962-047C,10/01/2019 23:15,16.35768467,0.0007011,58.3746,176.1198,322.3936,178.7278,4508,0.00070407,0.05866066,1.1e-05,6555.22,88.032,181.681,172.489,DEBRIS,US,18/09/1962,AFETR,11/01/2019,1962,47,11/01/2019 22:30,LEO,1,20569,SMALL
400,0 DELTA 1 DEB (YO),1 00400U 62047  D 89094.84579190  .13175818 +53300-4 +14250-2 0  9999,2 00400 058.1546 300.9235 0008659 235.8675 131.0387 16.36652401444358,02/05/2005 23:40,DELTA 1 DEB (YO),1962-047D,04/04/1989 20:17,16.36652401,0.0008659,58.1546,300.9235,235.8675,131.0387,44435,0.001425,0.13175818,5.33e-05,6552.863,87.984,180.403,169.054,DEBRIS,US,18/09/1962,AFETR,05/04/1989,1962,47,05/04/1989 16:35,LEO,1,9696,SMALL
401,0 THOR ABLESTAR DEB,1 00401U 61015 EA 89024.41582109  .20373346 +00000-0 +34562-1 0  9990,2 00401 066.9965 028.9924 0013592 069.7845 282.0666 15.77868763422502,02/05/2005 23:40,THOR ABLESTAR DEB,1961-015EA,24/01/1989 09:58,15.77868763,0.0013592,66.9965,28.9924,69.7845,282.0666,42250,0.034562,0.20373346,0.0,6714.621,91.262,345.612,327.359,DEBRIS,US,29/06/1961,AFETR,25/01/1989,1961,15,24/01/1989 19:57,LEO,1,10072,SMALL
402,0 THOR ABLESTAR DEB,1 00402U 61015EB  25193.46413460  .00004912  00000-0  91724-3 0  9999,2 00402  66.6543 100.3452 0033109 225.0869 134.7559 14.65444875291308,12/07/2025 17:51,THOR ABLESTAR DEB,1961-015EB,12/07/2025 11:08,14.65444875,0.0033109,66.6543,100.3452,225.0869,134.7559,29130,0.00091724,4.91e-05,0.0,7053.784,98.264,699.004,652.295,DEBRIS,US,29/06/1961,AFETR,,1961,15,12/07/2025 22:16,LEO,0,23390,SMALL
403,0 THOR ABLESTAR DEB,1 00403U 61015EC  25193.51244499 -.00000012  00000-0  58775-4 0  9998,2 00403  66.8419  20.8441 0016231  39.8438 352.0648 13.81161172224243,12/07/2025 17:51,THOR ABLESTAR DEB,1961-015EC,12/07/2025 12:17,13.81161172,0.0016231,66.8419,20.8441,39.8438,352.0648,22424,5.88e-05,-1.2e-07,0.0,7337.908,104.26,971.683,947.863,DEBRIS,US,29/06/1961,AFETR,,1961,15,13/07/2025 00:35,LEO,0,23390,SMALL
404,0 THOR ABLESTAR DEB,1 00404U 61015ED  25193.09111891 -.00000016  00000-0  83750-4 0  9996,2 00404  66.4700  97.1962 0556333 353.0197   6.3301 12.92178145999336,12/07/2025 17:51,THOR ABLESTAR DEB,1961-015ED,12/07/2025 02:11,12.92178145,0.0556333,66.47,97.1962,353.0197,6.3301,99933,8.38e-05,-1.6e-07,0.0,7671.028,111.44,1719.658,866.129,DEBRIS,US,29/06/1961,AFETR,,1961,15,12/07/2025 04:22,LEO,0,23390,SMALL
405,0 THOR ABLESTAR DEB,1 00405U 61015EE  25193.51117394  .00000110  00000-0  21386-3 0  9998,2 00405  66.8914 235.8791 0079473  50.3237  61.6579 13.66563074185739,12/07/2025 17:51,THOR ABLESTAR DEB,1961-015EE,12/07/2025 12:16,13.66563074,0.0079473,66.8914,235.8791,50.3237,61.6579,18573,0.00021386,1.1e-06,0.0,7390.073,105.374,1070.669,953.207,DEBRIS,US,29/06/1961,AFETR,,1961,15,13/07/2025 00:32,LEO,0,23390,SMALL
406,0 THOR ABLESTAR DEB,1 00406U 61015EF  25193.41682116  .00000324  00000-0  43282-3 0  9993,2 00406  66.7779  74.3423 0126416 263.9516 276.6167 13.69206022174670,12/07/2025 17:51,THOR ABLESTAR DEB,1961-015EF,12/07/2025 10:00,13.69206022,0.0126416,66.7779,74.3423,263.9516,276.6167,17467,0.00043282,3.24e-06,0.0,7380.56,105.17,1095.727,909.123,DEBRIS,US,29/06/1961,AFETR,,1961,15,12/07/2025 20:00,LEO,0,23390,SMALL
407,0 THOR ABLESTAR DEB,1 00407U 61015EG  25193.41372251  .00074519  00000-0  28395-2 0  9994,2 00407  66.2983 353.4322 0016850 198.4130 161.6405 15.26150505281874,12/07/2025 17:51,THOR ABLESTAR DEB,1961-015EG,12/07/2025 09:55,15.26150505,0.001685,66.2983,353.4322,198.413,161.6405,28187,0.0028395,0.00074519,0.0,6865.47,94.355,498.903,475.767,DEBRIS,US,29/06/1961,AFETR,,1961,15,12/07/2025 19:51,LEO,0,23390,SMALL
408,0 THOR ABLESTAR DEB,1 00408U 61015EH  25193.38529315  .00000264  00000-0  33795-3 0  9993,2 00408  66.7841 200.2752 0066171 345.0002 117.2844 13.76834731258914,12/07/2025 17:51,THOR ABLESTAR DEB,1961-015EH,12/07/2025 09:14,13.76834731,0.0066171,66.7841,200.2752,345.0002,117.2844,25891,0.00033795,2.64e-06,0.0,7353.272,104.588,1023.794,926.48,DEBRIS,US,29/06/1961,AFETR,,1961,15,12/07/2025 18:29,LEO,0,23390,SMALL
409,0 THOR ABLESTAR DEB,1 00409U 61015EJ  25193.34336522  .00000822  00000-0  35907-3 0  9993,2 00409  66.7119 155.9304 0056315  57.7309 302.9227 14.27987539292769,12/07/2025 17:51,THOR ABLESTAR DEB,1961-015EJ,12/07/2025 08:14,14.27987539,0.0056315,66.7119,155.9304,57.7309,302.9227,29276,0.00035907,8.22e-06,0.0,7176.603,100.841,838.883,758.053,DEBRIS,US,29/06/1961,AFETR,,1961,15,12/07/2025 16:28,LEO,0,23390,SMALL
410,0 THOR ABLESTAR DEB,1   410U 61015EK  25193.56657421 -.00000015  00000-0  61252-4 0  9991,2   410  66.6928 131.8320 0020941 244.3104 295.0974 13.76536550213818,12/07/2025 14:16,THOR ABLESTAR DEB,1961-015EK,12/07/2025 13:35,13.7653655,0.0020941,66.6928,131.832,244.3104,295.0974,21381,6.13e-05,-1.5e-07,0.0,7354.334,104.61,991.6,960.798,DEBRIS,US,29/06/1961,AFETR,,1961,15,13/07/2025 03:11,LEO,0,23390,SMALL
